NORAD_CAT_ID,OBJECT_NAME,OBJECT_TYPE,EPOCH,MEAN_MOTION,ECCENTRICITY,INCLINATION,RA_OF_ASC_NODE,ARG_OF_PERICENTER,MEAN_ANOMALY,BSTAR,MEAN_MOTION_DOT,MEAN_MOTION_DDOT,TLE_LINE0,TLE_LINE1,TLE_LINE2,SEMIMAJOR_AXIS,PERIOD,APOGEE,PERIGEE,DECAYED
53635.0,STARLINK-4587,PAYLOAD,2022-09-21 22:00:00,15.732061300000002,0.0001197,53.2142,165.2863,118.5468,61.4145,0.00022029,0.00030416,0.0,0 STARLINK-4587,1 53635U 22104AZ  22264.91667824  .00030416  00000-0  22029-3 0  9992,2 53635  53.2142 165.2863 0001197 118.5468  61.4145 15.73206130  3937,6727.878000000002,91.533,350.548,348.93699999999984,0.0
53635.0,STARLINK-4587,PAYLOAD,2022-09-22 14:00:01,15.73199238,0.0001419999999999,53.2145,161.9859,116.3703,241.4879,9.1469e-05,0.00012235,0.0,0 STARLINK-4587,1 53635U 22104AZ  22265.58334491  .00012235  00000-0  91469-4 0  9991,2 53635  53.2145 161.9859 0001420 116.3703 241.4879 15.73199238  1308,6727.897,91.533,350.718,348.807,0.0
53635.0,STARLINK-4587,PAYLOAD,2022-09-22 22:00:00,15.73187389,0.0001553,53.2147,160.3379,109.8322,336.9663,0.00011011,0.00014852,0.0,0 STARLINK-4587,1 53635U 22104AZ  22265.91667824  .00014852  00000-0  11011-3 0  9998,2 53635  53.2147 160.3379 0001553 109.8322 336.9663 15.73187389  1306,6727.931,91.534,350.841,348.751,0.0
53635.0,STARLINK-4587,PAYLOAD,2022-09-23 06:00:00,15.73132623,0.0001363,53.2162,158.6898,121.4186,54.3253,0.00071353,0.00100433,0.0,0 STARLINK-4587,1 53635U 22104AZ  22266.25001157  .00100433  00000-0  71353-3 0  9993,2 53635  53.2162 158.6898 0001363 121.4186  54.3253 15.73132623  4148,6728.087,91.537,350.869,349.035,0.0
53635.0,STARLINK-4587,PAYLOAD,2022-09-23 14:00:01,15.73233088,0.0001463,53.2141,157.0374,122.312,142.3347,0.00025585,0.00035489,0.0,0 STARLINK-4587,1 53635U 22104AZ  22266.58334491  .00035489  00000-0  25585-3 0  9993,2 53635  53.2141 157.0374 0001463 122.3120 142.3347 15.73233088  1300,6727.801,91.531,350.65,348.682,0.0
53635.0,STARLINK-4587,PAYLOAD,2022-09-23 22:00:00,15.73243479,0.0001333,53.2143,155.3893,117.8253,235.8159,-2.2862e-05,-3.833e-05,0.0,0 STARLINK-4587,1 53635U 22104AZ  22266.91667824 -.00003833  00000-0 -22862-4 0  9995,2 53635  53.2143 155.3893 0001333 117.8253 235.8159 15.73243479  1305,6727.771,91.531,350.533,348.73900000000015,0.0
53635.0,STARLINK-4587,PAYLOAD,2022-09-24 06:00:00,15.73245011,0.0001220999999999,53.2142,153.74,114.3141,328.3067,-6.582699999999999e-05,-9.865e-05,0.0,0 STARLINK-4587,1 53635U 22104AZ  22267.25001157 -.00009865  00000-0 -65827-4 0  9993,2 53635  53.2142 153.7400 0001221 114.3141 328.3067 15.73245011  4307,6727.767,91.531,350.45300000000015,348.81,0.0
53635.0,STARLINK-4587,PAYLOAD,2022-09-24 14:00:01,15.73247312,0.0001364,53.2144,152.0884,124.8817,46.7819,-0.0001528,-0.00022052,0.0,0 STARLINK-4587,1 53635U 22104AZ  22267.58335648 -.00022052  00000-0 -15280-3 0  9994,2 53635  53.2144 152.0884 0001364 124.8817  46.7819 15.73247312  1300,6727.76,91.53,350.543,348.708,0.0
53635.0,STARLINK-4587,PAYLOAD,2022-09-24 22:00:00,15.73214474,0.0001272,53.2143,150.4406,117.1734,143.4069,-0.00010793,-0.00015748,0.0,0 STARLINK-4587,1 53635U 22104AZ  22267.91667824 -.00015748  00000-0 -10793-3 0  9993,2 53635  53.2143 150.4406 0001272 117.1734 143.4069 15.73214474  1307,6727.854,91.532,350.575,348.86300000000006,0.0
53635.0,STARLINK-4587,PAYLOAD,2022-09-25 06:00:00,15.73206617,0.0001142,53.2136,148.7911,117.4737,232.0164,-0.00039652,-0.00055915,0.0,0 STARLINK-4587,1 53635U 22104AZ  22268.25001157 -.00055915  00000-0 -39652-3 0  9997,2 53635  53.2136 148.7911 0001142 117.4737 232.0164 15.73206617  4452,6727.876,91.533,350.51,348.973,0.0
53635.0,STARLINK-4587,PAYLOAD,2022-09-25 14:00:01,15.73123599,0.0001353,53.2139,147.1399,130.1487,308.2668,0.00057401,0.00080449,0.0,0 STARLINK-4587,1 53635U 22104AZ  22268.58334491  .00080449  00000-0  57401-3 0  9993,2 53635  53.2139 147.1399 0001353 130.1487 308.2668 15.73123599  1309,6728.113,91.538,350.88800000000015,349.0680000000001,0.0
53635.0,STARLINK-4587,PAYLOAD,2022-09-25 22:00:01,15.73205517,0.000122,53.2137,145.49200000000005,119.9999,47.3838,-0.00018036,-0.0002586,0.0,0 STARLINK-4587,1 53635U 22104AZ  22268.91668981 -.00025860  00000-0 -18036-3 0  9993,2 53635  53.2137 145.4920 0001220 119.9999  47.3838 15.73205517  4566,6727.879,91.533,350.565,348.9240000000001,0.0
53635.0,STARLINK-4587,PAYLOAD,2022-09-26 10:00:00,15.7322436,0.0001157,53.2141,143.0165,129.4413,351.2618,-0.00037317,-0.00052718,0.0,0 STARLINK-4587,1 53635U 22104AZ  22269.41667824 -.00052718  00000-0 -37317-3 0  9999,2 53635  53.2141 143.0165 0001157 129.4413 351.2618 15.73224360  4641,6727.826,91.532,350.469,348.912,0.0
53635.0,STARLINK-4587,PAYLOAD,2022-09-26 14:00:01,15.73175057,0.0001233,53.2139,142.1909,130.0008,215.1828,0.00014486,0.00019736,0.0,0 STARLINK-4587,1 53635U 22104AZ  22269.58334491  .00019736  00000-0  14486-3 0  9991,2 53635  53.2139 142.1909 0001233 130.0008 215.1828 15.73175057  1306,6727.965999999999,91.535,350.661,349.00199999999984,0.0
53635.0,STARLINK-4587,PAYLOAD,2022-09-26 22:00:00,15.73188631,0.0001235,53.2137,140.5433,117.0947,317.0056,-0.00040331,-0.00056813,0.0,0 STARLINK-4587,1 53635U 22104AZ  22269.91667824 -.00056813  00000-0 -40331-3 0  9994,2 53635  53.2137 140.5433 0001235 117.0947 317.0056 15.73188631  1304,6727.928000000001,91.534,350.62300000000016,348.962,0.0
53635.0,STARLINK-4587,PAYLOAD,2022-09-27 06:00:00,15.73150651,0.0001301,53.2138,138.8932,116.0906,46.902,4.6242e-05,5.861e-05,0.0,0 STARLINK-4587,1 53635U 22104AZ  22270.25001157  .00005861  00000-0  46242-4 0  9997,2 53635  53.2138 138.8932 0001301 116.0906  46.9020 15.73150651  4771,6728.036,91.536,350.776,349.026,0.0
53635.0,STARLINK-4587,PAYLOAD,2022-09-27 14:00:01,15.73152988,0.0001465,53.2145,137.2422,126.2015,125.6665,0.00074183,0.00104585,0.0,0 STARLINK-4587,1 53635U 22104AZ  22270.58334491  .00104585  00000-0  74183-3 0  9990,2 53635  53.2145 137.2422 0001465 126.2015 125.6665 15.73152988  1302,6728.029,91.536,350.88,348.909,0.0
53635.0,STARLINK-4587,PAYLOAD,2022-09-27 22:00:01,15.7321975,0.0001336,53.2151,135.5946,118.6225,222.2271,0.00037195,0.00051948,0.0,0 STARLINK-4587,1 53635U 22104AZ  22270.91668981  .00051948  00000-0  37195-3 0  9997,2 53635  53.2151 135.5946 0001336 118.6225 222.2271 15.73219750  1304,6727.839,91.532,350.603,348.805,0.0
53635.0,STARLINK-4587,PAYLOAD,2022-09-28 14:00:01,15.73285879,0.0001358,53.2154,132.2931,128.2754,30.5342,-0.00053812,-0.00075742,0.0,0 STARLINK-4587,1 53635U 22104AZ  22271.58334491 -.00075742  00000-0 -53812-3 0  9991,2 53635  53.2154 132.2931 0001358 128.2754  30.5342 15.73285879  1307,6727.65,91.528,350.42900000000014,348.602,0.0
53635.0,STARLINK-4587,PAYLOAD,2022-09-28 22:00:00,15.7320483,0.0001154,53.2152,130.6454,119.3891,128.3898,-0.00095395,-0.00132438,0.0,0 STARLINK-4587,1 53635U 22104AZ  22271.91667824 -.00132438  00000-0 -95395-3 0  9995,2 53635  53.2152 130.6454 0001154 119.3891 128.3898 15.73204830  5038,6727.880999999999,91.533,350.523,348.97,0.0
53635.0,STARLINK-4587,PAYLOAD,2022-09-29 06:00:00,15.73117569,0.0001185,53.2148,128.9951,121.3155,215.3474,0.00018428,0.00025229,0.0,0 STARLINK-4587,1 53635U 22104AZ  22272.25001157  .00025229  00000-0  18428-3 0  9993,2 53635  53.2148 128.9951 0001185 121.3155 215.3474 15.73117569  5089,6728.13,91.538,350.792,349.1980000000001,0.0
53635.0,STARLINK-4587,PAYLOAD,2022-09-29 14:00:01,15.73135887,0.0001326,53.215,127.3446,130.2887,295.2128,0.00063938,0.0008982999999999,0.0,0 STARLINK-4587,1 53635U 22104AZ  22272.58334491  .00089830  00000-0  63938-3 0  9993,2 53635  53.2150 127.3446 0001326 130.2887 295.2128 15.73135887  1309,6728.078,91.537,350.835,349.051,0.0
53635.0,STARLINK-4587,PAYLOAD,2022-09-29 20:00:01,15.73190064,0.0001159999999999,53.215,126.1091,124.4075,277.8183,0.00023343,0.00032252,0.0,0 STARLINK-4587,1 53635U 22104AZ  22272.83335648  .00032252  00000-0  23343-3 0  9998,2 53635  53.2150 126.1091 0001160 124.4075 277.8183 15.73190064  5176,6727.924,91.534,350.569,349.0080000000001,0.0
53635.0,STARLINK-4587,PAYLOAD,2022-09-29 22:00:00,15.73178355,0.0001097,53.215,125.6971,121.0295,33.3495,0.0004234,0.00059165,0.0,0 STARLINK-4587,1 53635U 22104AZ  22272.91667824  .00059165  00000-0  42340-3 0  9991,2 53635  53.2150 125.6971 0001097 121.0295  33.3495 15.73178355  1304,6727.956999999999,91.534,350.56,349.084,0.0
53635.0,STARLINK-4587,PAYLOAD,2022-09-30 14:00:01,15.73223943,0.0001463,53.2157,122.3958,120.9535,211.3407,-0.00022224,-0.00031725,0.0,0 STARLINK-4587,1 53635U 22104AZ  22273.58334491 -.00031725  00000-0 -22224-3 0  9999,2 53635  53.2157 122.3958 0001463 120.9535 211.3407 15.73223943  1307,6727.8269999999975,91.532,350.676,348.708,0.0
53635.0,STARLINK-4587,PAYLOAD,2022-09-30 16:00:00,15.73214685,0.0001485,53.2158,121.9839,118.1331,326.3989,-0.00012151,-0.00017649,0.0,0 STARLINK-4587,1 53635U 22104AZ  22273.66667824 -.00017649  00000-0 -12151-3 0  9994,2 53635  53.2158 121.9839 0001485 118.1331 326.3989 15.73214685  5318,6727.853,91.532,350.717,348.719,0.0
53635.0,STARLINK-4587,PAYLOAD,2022-09-30 22:00:00,15.73185808,0.0001446,53.2157,120.7484,109.2005,312.0395,0.00055374,0.00077769,0.0,0 STARLINK-4587,1 53635U 22104AZ  22273.91667824  .00077769  00000-0  55374-3 0  9993,2 53635  53.2157 120.7484 0001446 109.2005 312.0395 15.73185808  1308,6727.936,91.534,350.773,348.82800000000015,0.0
53635.0,STARLINK-4587,PAYLOAD,2022-10-01 06:00:00,15.73284276,0.0001333,53.2154,119.0977,114.7334,35.4385,-0.000611,-0.00085808,0.0,0 STARLINK-4587,1 53635U 22104AZ  22274.25001157 -.00085808  00000-0 -61100-3 0  9991,2 53635  53.2154 119.0977 0001333 114.7334  35.4385 15.73284276  5403,6727.655,91.528,350.417,348.62300000000016,0.0
53635.0,STARLINK-4587,PAYLOAD,2022-10-01 14:00:01,15.73228043,0.0001371,53.2157,117.4473,123.6913,115.4736,-0.00024598,-0.0003503999999999,0.0,0 STARLINK-4587,1 53635U 22104AZ  22274.58334491 -.00035040  00000-0 -24598-3 0  9990,2 53635  53.2157 117.4473 0001371 123.6913 115.4736 15.73228043  1307,6727.815,91.532,350.603,348.7580000000001,0.0
